{
  "norad_id": 64562,
  "name": "HUBBLE 6",
  "history": [
    {
      "epoch": "2026-03-28T20:25:37.442784Z",
      "apogee_km": 592.024313371533,
      "perigee_km": 589.7869719215378,
      "latitude_deg": -1.2506105492160775e-05,
      "longitude_deg": 70.30144433842334,
      "height_km": 594.04894386955,
      "semi_major_axis_km": 6969.042642646535,
      "eccentricity": 0.00016052,
      "inclination_deg": 97.7647,
      "raan_deg": 202.9731,
      "arg_perigee_deg": 95.3154,
      "mean_anomaly_deg": 264.8248,
      "mean_motion_rev_day": 14.92255125
    },
    {
      "epoch": "2026-03-30T20:42:20.906208Z",
      "apogee_km": 592.0338115354525,
      "perigee_km": 589.6809396543649,
      "latitude_deg": 3.7403904301194535e-05,
      "longitude_deg": 66.1212040254523,
      "height_km": 594.0038398385789,
      "semi_major_axis_km": 6968.994375594909,
      "eccentricity": 0.00016881,
      "inclination_deg": 97.7647,
      "raan_deg": 204.9567,
      "arg_perigee_deg": 95.2146,
      "mean_anomaly_deg": 264.9266,
      "mean_motion_rev_day": 14.92270628
    },
    {
      "epoch": "2026-03-31T20:50:41.889696Z",
      "apogee_km": 592.057409300257,
      "perigee_km": 589.6029390615104,
      "latitude_deg": -3.37661726788265e-05,
      "longitude_deg": 64.03392369503801,
      "height_km": 593.9503302514114,
      "semi_major_axis_km": 6968.967174180883,
      "eccentricity": 0.0001761,
      "inclination_deg": 97.7651,
      "raan_deg": 205.9482,
      "arg_perigee_deg": 93.7722,
      "mean_anomaly_deg": 266.3698,
      "mean_motion_rev_day": 14.92279365
    },
    {
      "epoch": "2026-04-01T20:59:02.501664Z",
      "apogee_km": 592.0123123832172,
      "perigee_km": 589.6247482185354,
      "latitude_deg": -3.3703086253077847e-06,
      "longitude_deg": 61.94818171349589,
      "height_km": 593.9166311745114,
      "semi_major_axis_km": 6968.955530300876,
      "eccentricity": 0.0001713,
      "inclination_deg": 97.7654,
      "raan_deg": 206.9397,
      "arg_perigee_deg": 92.8145,
      "mean_anomaly_deg": 267.327,
      "mean_motion_rev_day": 14.92283105
    },
    {
      "epoch": "2026-04-02T17:54:16.056288Z",
      "apogee_km": 591.9746536357634,
      "perigee_km": 589.6303023953587,
      "latitude_deg": 3.942806595030428e-05,
      "longitude_deg": 108.1420273783281,
      "height_km": 593.8817133275974,
      "semi_major_axis_km": 6968.939478015561,
      "eccentricity": 0.0001682,
      "inclination_deg": 97.7656,
      "raan_deg": 207.7992,
      "arg_perigee_deg": 91.9414,
      "mean_anomaly_deg": 268.1998,
      "mean_motion_rev_day": 14.92288261
    },
    {
      "epoch": "2026-04-02T21:07:22.672128Z",
      "apogee_km": 591.9457433538955,
      "perigee_km": 589.63526512914,
      "latitude_deg": 1.4177391599427053e-05,
      "longitude_deg": 59.86448561772274,
      "height_km": 593.8620266853028,
      "semi_major_axis_km": 6968.927504241517,
      "eccentricity": 0.00016577,
      "inclination_deg": 97.7657,
      "raan_deg": 207.9314,
      "arg_perigee_deg": 91.5849,
      "mean_anomaly_deg": 268.556,
      "mean_motion_rev_day": 14.92292107
    },
    {
      "epoch": "2026-04-03T18:02:35.570112Z",
      "apogee_km": 591.8150957755906,
      "perigee_km": 589.7007330585575,
      "latitude_deg": -8.010453977384056e-05,
      "longitude_deg": 106.06109271767365,
      "height_km": 593.7991788353697,
      "semi_major_axis_km": 6968.894914417074,
      "eccentricity": 0.0001517,
      "inclination_deg": 97.7662,
      "raan_deg": 208.7909,
      "arg_perigee_deg": 90.0785,
      "mean_anomaly_deg": 270.0607,
      "mean_motion_rev_day": 14.92302575
    }
  ]
}